NORAD_CAT_ID,OBJECT_NAME,OBJECT_TYPE,EPOCH,MEAN_MOTION,ECCENTRICITY,INCLINATION,RA_OF_ASC_NODE,ARG_OF_PERICENTER,MEAN_ANOMALY,BSTAR,MEAN_MOTION_DOT,MEAN_MOTION_DDOT,TLE_LINE0,TLE_LINE1,TLE_LINE2,SEMIMAJOR_AXIS,PERIOD,APOGEE,PERIGEE,DECAYED
51814.0,STARLINK-3599,PAYLOAD,2023-06-13 22:24:54,15.08836776,0.0001146,53.2172,137.1888,106.3134,253.7984,-3.1552e-05,-7.9e-06,0.0,0 STARLINK-3599,1 51814U 22017AY  23164.93396022 -.00000790  00000-0 -31552-4 0  9999,2 51814  53.2172 137.1888 0001146 106.3134 253.7984 15.08836776 73275,6917.89,95.438,540.548,538.962,0.0
51814.0,STARLINK-3599,PAYLOAD,2023-06-14 07:57:13,15.08835307,0.0001027,53.2172,135.4117,89.3187,270.7923,-4.4862e-05,-1.002e-05,0.0,0 STARLINK-3599,1 51814U 22017AY  23165.33140314 -.00001002  00000-0 -44862-4 0  9990,2 51814  53.2172 135.4117 0001027  89.3187 270.7923 15.08835307 73212,6917.895,95.438,540.47,539.049,0.0
51814.0,STARLINK-3599,PAYLOAD,2023-06-15 03:01:51,15.08835063,0.0001056,53.217,131.8425,90.266,269.8453,-6.9741e-05,-1.397e-05,0.0,0 STARLINK-3599,1 51814U 22017AY  23166.12628699 -.00001397  00000-0 -69741-4 0  9995,2 51814  53.2170 131.8425 0001056  90.2660 269.8453 15.08835063 73453,6917.895,95.438,540.491,539.03,0.0
51814.0,STARLINK-3599,PAYLOAD,2023-06-15 07:48:00,15.08835348,0.0001014,53.2172,130.9514,86.3772,273.7336,-5.5719e-05,-1.174e-05,0.0,0 STARLINK-3599,1 51814U 22017AY  23166.32500715 -.00001174  00000-0 -55719-4 0  9998,2 51814  53.2172 130.9514 0001014  86.3772 273.7336 15.08835348 73368,6917.895,95.438,540.461,539.058,0.0
51814.0,STARLINK-3599,PAYLOAD,2023-06-16 06:03:23,15.08841018,0.0001101,53.2161,126.7887,96.0194,264.0924,0.00019025,2.741e-05,0.0,0 STARLINK-3599,1 51814U 22017AY  23167.25236026  .00002741  00000-0  19025-3 0  9990,2 51814  53.2161 126.7887 0001101  96.0194 264.0924 15.08841018 73621,6917.877,95.437,540.504,538.981,0.0
51814.0,STARLINK-3599,PAYLOAD,2023-06-16 14:00:19,15.08837314,0.000116,53.217,125.3004,88.5966,271.5159,0.00012345,1.677e-05,0.0,0 STARLINK-3599,1 51814U 22017AY  23167.58356440  .00001677  00000-0  12345-3 0  9994,2 51814  53.2170 125.3004 0001160  88.5966 271.5159 15.08837314 73677,6917.889,95.438,540.556,538.951,0.0
51814.0,STARLINK-3599,PAYLOAD,2023-06-17 05:54:11,15.08844375,0.0001217,53.2167,122.3294,96.2535,263.8596,0.00011919,1.61e-05,0.0,0 STARLINK-3599,1 51814U 22017AY  23168.24596100  .00001610  00000-0  11919-3 0  9990,2 51814  53.2167 122.3294 0001217  96.2535 263.8596 15.08844375 73654,6917.867,95.437,540.574,538.89,0.0
51814.0,STARLINK-3599,PAYLOAD,2023-06-17 13:51:07,15.08836059,0.0001273,53.2168,120.8417,85.5511,274.5626,4.3386e-05,4.03e-06,0.0,0 STARLINK-3599,1 51814U 22017AY  23168.57716961  .00000403  00000-0  43386-4 0  9998,2 51814  53.2168 120.8417 0001273  85.5511 274.5626 15.08836059 73824,6917.892,95.438,540.638,538.877,0.0
51814.0,STARLINK-3599,PAYLOAD,2023-06-17 23:23:27,15.08828167,0.0001236,53.2156,119.0573,91.3019,268.8115,-0.00011189,-2.068e-05,0.0,0 STARLINK-3599,1 51814U 22017AY  23168.97462117 -.00002068  00000-0 -11189-3 0  9999,2 51814  53.2156 119.0573 0001236  91.3019 268.8115 15.08828167 73887,6917.917,95.438,540.637,538.927,0.0
51814.0,STARLINK-3599,PAYLOAD,2023-06-18 05:44:59,15.08829918,0.0001573,53.2148,117.8671,89.3467,270.7705,-8.2426e-05,-1.599e-05,0.0,0 STARLINK-3599,1 51814U 22017AY  23169.23958185 -.00001599  00000-0 -82426-4 0  9995,2 51814  53.2148 117.8671 0001573  89.3467 270.7705 15.08829918 73805,6917.911,95.438,540.864,538.688,0.0
51814.0,STARLINK-3599,PAYLOAD,2023-06-18 13:41:54,15.08842765,0.0001131,53.2167,116.3812,93.7255,266.3867,-9.4246e-05,-1.788e-05,0.0,0 STARLINK-3599,1 51814U 22017AY  23169.57077287 -.00001788  00000-0 -94246-4 0  9990,2 51814  53.2167 116.3812 0001131  93.7255 266.3867 15.08842765 73974,6917.872,95.437,540.519,538.955,0.0
51814.0,STARLINK-3599,PAYLOAD,2023-06-19 05:35:45,15.08850028,0.0001029,53.2168,113.4075,91.6955,268.4155,8.3148e-05,1.036e-05,0.0,0 STARLINK-3599,1 51814U 22017AY  23170.23316398  .00001036  00000-0  83148-4 0  9997,2 51814  53.2168 113.4075 0001029  91.6955 268.4155 15.08850028 74070,6917.85,95.437,540.427,539.003,0.0
51814.0,STARLINK-3599,PAYLOAD,2023-06-19 13:32:41,15.08856121,0.0001086,53.217,111.9185,76.0182,284.0931,-0.00015589,-2.769e-05,0.0,0 STARLINK-3599,1 51814U 22017AY  23170.56436512 -.00002769  00000-0 -15589-3 0  9993,2 51814  53.2170 111.9185 0001086  76.0182 284.0931 15.08856121 74009,6917.831,95.437,540.447,538.945,0.0
51814.0,STARLINK-3599,PAYLOAD,2023-06-20 02:15:47,15.08833579,0.0001091,53.2179,109.5408,84.0161,276.0955,0.00018029,2.582e-05,0.0,0 STARLINK-3599,1 51814U 22017AY  23171.09429403  .00002582  00000-0  18029-3 0  9996,2 51814  53.2179 109.5408 0001091  84.0161 276.0955 15.08833579 74202,6917.9,95.438,540.52,539.01,0.0
51814.0,STARLINK-3599,PAYLOAD,2023-06-20 05:26:33,15.08836832,0.0001152,53.2176,108.9455,85.6212,274.4912,0.0001421,1.974e-05,0.0,0 STARLINK-3599,1 51814U 22017AY  23171.22677365  .00001974  00000-0  14210-3 0  9995,2 51814  53.2176 108.9455 0001152  85.6212 274.4912 15.08836832 74105,6917.89,95.438,540.552,538.958,0.0
51814.0,STARLINK-3599,PAYLOAD,2023-06-20 13:23:28,15.0884085,0.0001237,53.2164,107.4635,70.6798,289.4328,0.00012436,1.692e-05,0.0,0 STARLINK-3599,1 51814U 22017AY  23171.55797317  .00001692  00000-0  12436-3 0  9996,2 51814  53.2164 107.4635 0001237  70.6798 289.4328 15.08840850 74150,6917.878,95.438,540.599,538.887,0.0
51814.0,STARLINK-3599,PAYLOAD,2023-06-21 02:06:33,15.08856792,0.0001317,53.2178,105.0774,122.5709,237.5411,4.7162e-06,-2.13e-06,0.0,0 STARLINK-3599,1 51814U 22017AY  23172.08788298 -.00000213  00000-0  47162-5 0  9998,2 51814  53.2178 105.0774 0001317 122.5709 237.5411 15.08856792 74352,6917.829,95.436,540.605,538.783,0.0
51814.0,STARLINK-3599,PAYLOAD,2023-06-21 05:17:19,15.08853394,0.0001137,53.2176,104.4835,99.145,260.967,8.3724e-05,1.045e-05,0.0,0 STARLINK-3599,1 51814U 22017AY  23172.22036334  .00001045  00000-0  83724-4 0  9997,2 51814  53.2176 104.4835 0001137  99.1450 260.9670 15.08853394 74254,6917.839,95.437,540.491,538.918,0.0
51814.0,STARLINK-3599,PAYLOAD,2023-06-22 01:57:21,15.08839791,0.0001265,53.2176,100.6174,94.2821,265.8316,4.6113e-05,4.46e-06,0.0,0 STARLINK-3599,1 51814U 22017AY  23173.08149357  .00000446  00000-0  46113-4 0  9997,2 51814  53.2176 100.6174 0001265  94.2821 265.8316 15.08839791 74502,6917.881,95.438,540.621,538.871,0.0
51814.0,STARLINK-3599,PAYLOAD,2023-06-23 04:58:53,15.08852051,0.0001236,53.2159,95.5651,90.3405,269.7729,0.00016243,2.299e-05,0.0,0 STARLINK-3599,1 51814U 22017AY  23174.20756784  .00002299  00000-0  16243-3 0  9998,2 51814  53.2159  95.5651 0001236  90.3405 269.7729 15.08852051 74671,6917.844,95.437,540.564,538.854,0.0
51814.0,STARLINK-3599,PAYLOAD,2023-06-23 19:17:22,15.08839656,0.0001899,53.2162,92.8887,84.5286,275.5923,0.00010584,1.397e-05,0.0,0 STARLINK-3599,1 51814U 22017AY  23174.80373669  .00001397  00000-0  10584-3 0  9991,2 51814  53.2162  92.8887 0001899  84.5286 275.5923 15.08839656 74760,6917.881,95.438,541.06,538.433,0.0
51814.0,STARLINK-3599,PAYLOAD,2023-06-25 03:05:05,15.08848718,0.0001265,53.2163,86.943,95.833,264.2807,0.00014687,2.051e-05,0.0,0 STARLINK-3599,1 51814U 22017AY  23176.12853343  .00002051  00000-0  14687-3 0  9996,2 51814  53.2163  86.9430 0001265  95.8330 264.2807 15.08848718 74968,6917.854,95.437,540.594,538.844,0.0
51814.0,STARLINK-3599,PAYLOAD,2023-06-25 17:23:33,15.0884149,0.0001669,53.2152,84.2646,86.5607,273.5575,0.00010511,1.385e-05,0.0,0 STARLINK-3599,1 51814U 22017AY  23176.72469829  .00001385  00000-0  10511-3 0  9995,2 51814  53.2152  84.2646 0001669  86.5607 273.5575 15.08841490 75054,6917.876,95.437,540.895,538.586,0.0
51814.0,STARLINK-3599,PAYLOAD,2023-06-26 17:14:21,15.08836594,0.000104,53.2157,79.8064,88.9695,271.1416,6.182e-05,6.96e-06,0.0,0 STARLINK-3599,1 51814U 22017AY  23177.71830059  .00000696  00000-0  61820-4 0  9996,2 51814  53.2157  79.8064 0001040  88.9695 271.1416 15.08836594 75203,6917.891,95.438,540.475,539.036,0.0
51814.0,STARLINK-3599,PAYLOAD,2023-06-27 23:26:40,15.08840577,9.27e-05,53.2163,74.1564,75.6843,284.4252,0.00010591,1.398e-05,0.0,0 STARLINK-3599,1 51814U 22017AY  23178.97686135  .00001398  00000-0  10591-3 0  9997,2 51814  53.2163  74.1564 0000927  75.6843 284.4252 15.08840577 75395,6917.879,95.438,540.385,539.102,0.0
51814.0,STARLINK-3599,PAYLOAD,2023-06-29 02:28:14,15.08840825,0.0001089,53.2175,69.0997,96.7119,263.3997,6.1208e-05,6.86e-06,0.0,0 STARLINK-3599,1 51814U 22017AY  23180.10294344  .00000686  00000-0  61208-4 0  9993,2 51814  53.2175  69.0997 0001089  96.7119 263.3997 15.08840825 75568,6917.878,95.438,540.496,538.99,0.0
51814.0,STARLINK-3599,PAYLOAD,2023-06-29 23:08:14,15.08846935,0.0001143,53.2179,65.2344,89.7278,270.3845,0.00011804,1.592e-05,0.0,0 STARLINK-3599,1 51814U 22017AY  23180.96405812  .00001592  00000-0  11804-3 0  9994,2 51814  53.2179  65.2344 0001143  89.7278 270.3845 15.08846935 75697,6917.859,95.437,540.515,538.933,0.0
51814.0,STARLINK-3599,PAYLOAD,2023-07-01 00:34:25,15.08836508,0.0001049,53.2177,60.4774,90.2438,269.8674,9.7129e-05,1.258e-05,0.0,0 STARLINK-3599,1 51814U 22017AY  23182.02390689  .00001258  00000-0  97129-4 0  9992,2 51814  53.2177  60.4774 0001049  90.2438 269.8674 15.08836508 75855,6917.891,95.438,540.482,539.03,0.0
51814.0,STARLINK-3599,PAYLOAD,2023-07-02 08:22:08,15.08838286,8.92e-05,53.2176,54.5312,86.2088,273.9006,4.6423e-05,4.51e-06,0.0,0 STARLINK-3599,1 51814U 22017AY  23183.34870965  .00000451  00000-0  46423-4 0  9993,2 51814  53.2176  54.5312 0000892  86.2088 273.9006 15.08838286 76050,6917.886,95.438,540.368,539.134,0.0
51814.0,STARLINK-3599,PAYLOAD,2023-07-02 22:40:36,15.08844192,9.78e-05,53.2177,51.8546,94.0147,266.0957,0.00014029,1.946e-05,0.0,0 STARLINK-3599,1 51814U 22017AY  23183.94486492  .00001946  00000-0  14029-3 0  9993,2 51814  53.2177  51.8546 0000978  94.0147 266.0957 15.08844192 76149,6917.868,95.437,540.409,539.056,0.0
